GLOBALSTAR M078         
1 39076U 13005E   24159.78184436 -.00000187  00000+0 -46160-3 0  9993
2 39076  51.9895  15.3142 0001727  77.5498 282.5562 12.62275320522635
GLOBALSTAR M095         
1 39077U 13005F   24160.04518495 -.00000076  00000+0  15340-3 0  9993
2 39077  51.9819  11.8905 0001466  95.6522 264.4512 12.62263716522886
GLOBALSTAR M087         
1 52888U 22064A   24159.91790157 -.00000058  00000+0  13412-3 0  9992
2 52888  51.9752 240.7038 0009011 343.1921  16.8680 13.37576102 96289
